HRC MONOBLOCK CAMERA    
1 66052U 98067XR  26076.11873786  .00039682  00000+0  43154-3 0  9998
2 66052  51.6290  28.0146 0003834 127.1537 232.9808 15.63041663 23551
HTV-X1                  
1 66174U 25241A   26073.34423277  .00013268  00000+0  57087-3 0  9997
2 66174  51.6358  50.7100 0005741 187.4047 172.6846 15.22910160 21661
SZ-21 MODULE            
1 66515U 25246C   26075.63014367  .00032043  00000+0  27011-3 0  9997
2 66515  41.4745 160.6185 0000725 306.4076  53.6699 15.69116640 19161
SHENZHOU-22             
1 66645U 25272A   26075.56184825  .00021647  00000+0  25302-3 0  9998
2 66645  41.4671 166.3358 0006265 313.8090  46.2230 15.61049688270405
SOYUZ-MS 28             
1 66664U 25275A   26076.12878023  .00010265  00000+0  19871-3 0  9993
2 66664  51.6339  35.5823 0006017 202.6546 157.4177 15.48331788557526
DUPLEX                  
1 66906U 98067XS  26075.13518510  .00027658  00000+0  38599-3 0  9995
2 66906  51.6293  37.1993 0002811 140.2685 219.8513 15.56663362 16138
ISS OBJECT XT           
1 66907U 98067XT  26075.90042918  .00153665  00000+0  11449-2 0  9997
2 66907  51.6248  28.7869 0004857 127.6513 232.4926 15.71760145 16311
ISS OBJECT XU           
1 66908U 98067XU  26075.89801107  .00156547  00000+0  11587-2 0  9994
2 66908  51.6246  28.7673 0005160 128.8634 231.2825 15.71905956 16314
SILVERSAT               
1 66909U 98067XV  26075.88449623  .00206281  00000+0  13000-2 0  9998
2 66909  51.6233  27.9241 0005556 128.9554 231.1941 15.75488224 16321
ISS OBJECT XW           
1 66910U 98067XW  26075.89886693  .00135140  00000+0  10486-2 0  9993
2 66910  51.6239  28.7698 0005458 130.1811 229.9665 15.70856846 16317
ISS OBJECT XX           
1 66911U 98067XX  26075.86504153  .00270415  00000+0  14074-2 0  9991
2 66911  51.6212  27.0197 0007024 133.5806 226.5779 15.79589243 16320
ISS OBJECT XY           
1 66912U 98067XY  26075.86378951  .00084324  00000+0  83336-3 0  9997
2 66912  51.6275  30.8080 0003553 131.7631 228.3668 15.65148353 16271
